COSMOS 2419 (714)       
1 28915U 05050A   17237.07858704 -.00000028  00000-0  00000+0 0  9994
2 28915  65.5298  63.5321 0016101 358.6635  14.9057  2.13106804 90805
COSMOS 2425 (716)       
1 29670U 06062A   17236.66253877 -.00000029  00000-0  10000-3 0  9997
2 29670  65.4264 302.5543 0019632 341.7379 124.3698  2.13104973 82991
COSMOS 2426 (717)       
1 29671U 06062B   17236.85845711 -.00000031  00000-0  10000-3 0  9996
2 29671  65.4443 302.6399 0019148 169.1500 305.0855  2.13102959 83009
COSMOS 2424 (715)       
1 29672U 06062C   17236.59463443 -.00000029  00000-0  10000-3 0  9993
2 29672  65.4283 302.5694 0018506 168.2060 278.8024  2.13102396 82994
COSMOS 2433 (720)       
1 32275U 07052A   17236.74446963 -.00000028  00000-0  10000-3 0  9990
2 32275  65.5451  63.3226 0000456 216.5641 144.3880  2.13104645 76512
COSMOS 2432 (719)       
1 32276U 07052B   17236.75755064 -.00000028  00000-0  10000-3 0  9997
2 32276  65.5569  63.3944 0010480 346.7218 337.0122  2.13104024 76504
COSMOS 2434 (721)       
1 32393U 07065A   17237.36982328 -.00000034  00000-0  00000+0 0  9996
2 32393  65.0420 301.6474 0004280 144.5455 225.4188  2.13102829 75231
COSMOS 2436 (723)       
1 32395U 07065C   17237.28799406 -.00000033  00000-0  10000-3 0  9996
2 32395  65.0520 301.6968 0013066 355.8458   0.3816  2.13104337 75159
COSMOS 2443 (725)       
1 33379U 08046B   17236.65323868 -.00000028  00000-0  00000-0 0  9994
2 33379  65.4752  62.7023 0012644 175.3972  14.8149  2.13099578 69362
COSMOS 2456 (730)       
1 36111U 09070A   17237.04375079  .00000019  00000-0  00000+0 0  9992
2 36111  64.1817 181.2221 0005921 302.4503 348.7050  2.13102973 59887
COSMOS 2457 (733)       
1 36112U 09070B   17236.72456225  .00000017  00000-0  00000-0 0  9999
2 36112  64.1641 181.1502 0006078 186.8646 347.6681  2.13101753 59883
COSMOS 2458 (734)       
1 36113U 09070C   17236.62652569  .00000016  00000-0  10000-3 0  9991
2 36113  64.1694 181.1624 0002412 310.6943 196.6854  2.13101901 59881
COSMOS 2459 (731)       
1 36400U 10007A   17237.16226466 -.00000029  00000-0  10000-3 0  9990
2 36400  65.4537  62.4057 0026949 357.1993 185.7918  2.13102275 58247
COSMOS 2461 (735)       
1 36401U 10007B   17236.82704876 -.00000029  00000-0  10000-3 0  9999
2 36401  65.4459  62.3952 0008779  74.0954 122.3485  2.13102260 58236
COSMOS 2460 (732)       
1 36402U 10007C   17237.22470733 -.00000029  00000-0  10000-3 0  9997
2 36402  65.4356  62.3518 0002392  88.3563  94.2823  2.13101691 58241
COSMOS 2465 (737)       
1 37138U 10041B   17237.29876027 -.00000034  00000-0  00000+0 0  9996
2 37138  64.6398 301.6016 0036578 171.4167 187.9261  2.13097500 54317
COSMOS 2464 (736)       
1 37139U 10041C   17237.46175029 -.00000035  00000-0  00000+0 0  9991
2 37139  64.6469 301.5969 0021115  11.1095 297.1199  2.13102703 54310
COSMOS 2471 (701K)      
1 37372U 11009A   17236.75922772 -.00000029  00000-0  00000-0 0  9995
2 37372  65.4355  62.3156 0006793 224.6194  98.5164  2.13107661 50508
COSMOS 2474 (742)       
1 37829U 11055A   17236.77363361  .00000018  00000-0  00000+0 0  9994
2 37829  64.5062 181.8245 0010247 253.0395  50.3731  2.13101946 45874
COSMOS 2476 (744)       
1 37867U 11064A   17236.63251756  .00000017  00000-0  00000+0 0  9994
2 37867  64.4859 181.8989 0019502 245.9470 355.1669  2.13101981 45225
COSMOS 2477 (745)       
1 37868U 11064B   17237.20715059  .00000021  00000-0  00000+0 0  9995
2 37868  64.4950 181.9250 0017385 247.3487 253.6863  2.13101877 45199
COSMOS 2475 (743)       
1 37869U 11064C   17237.14215524  .00000021  00000-0  00000+0 0  9991
2 37869  64.5019 181.9188 0022210 270.8041 136.8260  2.13102188 45208
COSMOS 2485 (747)       
1 39155U 13019A   17236.63636486  .00000017  00000-0  00000+0 0  9995
2 39155  64.6557 181.9438 0019888 240.9990  48.0644  2.13102086 33699
COSMOS 2492 (754)       
1 39620U 14012A   17236.74657958 -.00000029  00000-0  10000-3 0  9994
2 39620  65.3273  62.2962 0013756 339.3448  68.5682  2.13103426 26657
COSMOS 2500 (755)       
1 40001U 14032A   17236.61501429 -.00000029  00000-0  00000-0 0  9994
2 40001  65.2664  62.2929 0005400 183.7530 346.1347  2.13102784 24868
COSMOS 2501 (702K)      
1 40315U 14075A   17236.73097465 -.00000033  00000-0  00000+0 0  9996
2 40315  64.3743 302.9410 0016645 208.4001 215.6234  2.13098688 21278
COSMOS 2514 (751)       
1 41330U 16008A   17236.70715258 -.00000030  00000-0  00000-0 0  9994
2 41330  65.0674  62.4152 0008118 202.8126 217.9204  2.13103387 12039
COSMOS 2516 (753)       
1 41554U 16032A   17236.63654231 -.00000031  00000-0  00000+0 0  9994
2 41554  64.5934 302.7259 0013855 218.5607  40.2351  2.13101607  9635
